STARLINK-31603          
1 59201U 24046A   26068.48089547 -.00004777  00000+0 -14927-3 0  9992
2 59201  53.1597 156.5924 0001907  78.3131 281.8084 15.30195025113019
TEVEL2-2                
1 63219U 25052K   26068.64848259  .00020339  00000+0  69428-3 0  9991
2 63219  97.3987 324.7700 0004693 105.7930 254.3828 15.30343745 54855
